1 40118U 14049A   23133.75543075  .00001728  00000+0  23051-3 0  9991
2 40118  97.7157 195.7457 0006074 327.3970  32.6864 14.80805479471971